      2.10          N: GNSS NAV DATA                        RINEX VERSION / TYPE
fic2rin                                 12/04/2024 00:59:02 PGM / RUN BY / DATE
                                                            END OF HEADER
25 24 12  3 18  0  0.0  .498478766531D-03 -.341060513165D-12  .000000000000D+00
     .290000000000D+02  .102812500000D+02  .486341686655D-08  .136419001713D+01
     .460073351860D-06  .121628576890D-01  .919960439205D-05  .515370028687D+04
     .237600000000D+06 -.277534127235D-06  .280811055737D+01 -.558793544769D-08
     .949538944108D+00  .199093750000D+03  .110024958387D+01 -.806497879588D-08
    -.625026034843D-09  .100000000000D+01  .234300000000D+04  .000000000000D+00
     .240000000000D+01  .000000000000D+00  .558793544769D-08  .290000000000D+02
     .230400000000D+06  .400000000000D+01
27 24 12  3 18  0  0.0 -.344477593899D-04  .227373675443D-12  .000000000000D+00
     .830000000000D+02  .137406250000D+03  .424410535545D-08 -.116256244487D+01
     .711902976036D-05  .129312791396D-01  .834092497826D-05  .515369024277D+04
     .237600000000D+06  .294297933578D-06 -.241822775536D+01  .160187482834D-06
     .959552100488D+00  .219000000000D+03  .800691078900D+00 -.787318509262D-08
    -.183221917643D-09  .100000000000D+01  .234300000000D+04  .000000000000D+00
     .240000000000D+01  .000000000000D+00  .186264514923D-08  .830000000000D+02
     .230400000000D+06  .400000000000D+01
29 24 12  3 18  0  0.0 -.558889470994D-03  .306954461848D-11  .000000000000D+00
     .179000000000D+03  .135218750000D+03  .410767110099D-08 -.132653322572D+01
     .696256756783D-05  .286368199158D-02  .715442001820D-05  .515374238586D+04
     .237600000000D+06 -.391155481339D-07 -.233315314277D+01 -.130385160446D-07
     .968731326268D+00  .246500000000D+03  .266551364749D+01 -.781175396234D-08
    -.207151485834D-10  .100000000000D+01  .234300000000D+04  .000000000000D+00
     .240000000000D+01  .000000000000D+00 -.977888703346D-08  .179000000000D+03
     .230400000000D+06  .400000000000D+01
24 24 12  3 18  0  0.0 -.476233661175D-03  .272848410532D-11  .000000000000D+00
     .103000000000D+03  .696875000000D+01  .551844415106D-08 -.312777875704D+01
     .163912773132D-06  .163557479391D-01  .548921525478D-05  .515368265915D+04
     .237600000000D+06  .104308128357D-06  .168019421266D+01 -.298023223877D-06
     .933602376835D+00  .257531250000D+03  .103639737464D+01 -.812390982202D-08
     .296798077117D-09  .100000000000D+01  .234300000000D+04  .000000000000D+00
     .240000000000D+01  .000000000000D+00  .232830643654D-08  .103000000000D+03
     .230400000000D+06  .400000000000D+01
21 24 12  3 18  0  0.0  .959024764597D-04 -.102318153949D-11  .000000000000D+00
     .115000000000D+03  .535000000000D+02  .462912139292D-08 -.141910069990D+01
     .282563269138D-05  .256743138889D-01  .106915831566D-05  .515362823486D+04
     .237600000000D+06 -.298023223877D-06 -.145429725224D+01 -.266358256340D-06
     .960642896095D+00  .366406250000D+03 -.484635706108D+00 -.854678457931D-08
     .420374653149D-09  .100000000000D+01  .234300000000D+04  .000000000000D+00
     .340000000000D+01  .000000000000D+00 -.102445483208D-07  .115000000000D+03
     .230400000000D+06  .400000000000D+01
20 24 12  3 18  0  0.0  .368202570826D-03 -.341060513165D-12  .000000000000D+00
     .970000000000D+02 -.117750000000D+03  .435446709532D-08 -.285624874428D+01
    -.607781112194D-05  .385993265081D-02  .363215804100D-05  .515365672684D+04
     .237600000000D+06 -.558793544769D-08 -.493354570587D+00 -.838190317154D-07
     .956591468823D+00  .305343750000D+03 -.242873221815D+01 -.811212361680D-08
    -.108218793461D-09  .100000000000D+01  .234300000000D+04  .000000000000D+00
     .340000000000D+01  .000000000000D+00 -.838190317154D-08  .970000000000D+02
     .230400000000D+06  .400000000000D+01
15 24 12  3 18  0  0.0  .235221348703D-03  .454747350886D-11  .000000000000D+00
     .900000000000D+02 -.580937500000D+02  .468090926437D-08 -.224803277010D+01
    -.309757888317D-05  .161314583384D-01  .991113483906D-05  .515373467064D+04
     .237600000000D+06  .217929482460D-06  .574970547865D+00 -.298023223877D-07
     .937425269971D+00  .165968750000D+03  .138159741248D+01 -.768460580896D-08
     .583238579942D-09  .100000000000D+01  .234300000000D+04  .000000000000D+00
     .340000000000D+01  .000000000000D+00 -.102445483208D-07  .900000000000D+02
     .230400000000D+06  .400000000000D+01
17 24 12  3 18  0  0.0  .534126069397D-03 -.154614099301D-10  .000000000000D+00
     .680000000000D+02  .128343750000D+03  .424731977506D-08 -.128473499076D+01
     .675953924656D-05  .134926195024D-01  .833347439766D-05  .515359044075D+04
     .237600000000D+06 -.238418579102D-06 -.234865535796D+01  .132247805595D-06
     .966244024673D+00  .227437500000D+03 -.126102144418D+01 -.803069165340D-08
    -.389301930274D-10  .100000000000D+01  .234300000000D+04  .000000000000D+00
     .240000000000D+01  .000000000000D+00 -.107102096081D-07  .680000000000D+02
     .230400000000D+06  .400000000000D+01
19 24 12  3 18  0  0.0  .569890718907D-03  .432009983342D-11  .000000000000D+00
     .600000000000D+02  .122062500000D+03  .429482175371D-08  .582907331950D+00
     .615231692791D-05  .996336655226D-02  .741519033909D-05  .515359733009D+04
     .237600000000D+06  .184401869774D-06 -.230443886236D+01 -.968575477600D-07
     .965426279800D+00  .238750000000D+03  .268905917500D+01 -.802354849872D-08
    -.860750139413D-10  .100000000000D+01  .234300000000D+04  .000000000000D+00
     .240000000000D+01  .000000000000D+00 -.153668224812D-07  .600000000000D+02
     .230400000000D+06  .400000000000D+01
18 24 12  3 18  0  0.0 -.660572201014D-03  .113686837722D-12  .000000000000D+00
     .900000000000D+01  .317500000000D+02  .427410660512D-08  .301224309597D+01
     .163353979588D-05  .479861022905D-02 -.100582838058D-06  .515372255707D+04
     .237600000000D+06 -.279396772385D-07 -.134196735670D+01 -.745058059692D-07
     .974022803365D+00  .389562500000D+03 -.294146747625D+01 -.821105630917D-08
     .528593446610D-10  .100000000000D+01  .234300000000D+04  .000000000000D+00
     .240000000000D+01  .000000000000D+00 -.838190317154D-08  .265000000000D+03
     .230400000000D+06  .400000000000D+01
23 24 12  3 18  0  0.0  .376106705517D-03  .784439180279D-11  .000000000000D+00
     .150000000000D+02 -.138375000000D+03  .381944480949D-08  .189279224564D+01
    -.714510679245D-05  .495212187525D-02  .537373125553D-05  .515363158989D+04
     .237600000000D+06 -.782310962677D-07 -.339890422029D+00  .931322574615D-07
     .982261504483D+00  .285000000000D+03 -.289012719573D+01 -.786532762247D-08
    -.167506977338D-09  .100000000000D+01  .234300000000D+04  .000000000000D+00
     .240000000000D+01  .000000000000D+00 -.838190317154D-08  .527000000000D+03
     .230400000000D+06  .400000000000D+01
28 24 12  3 18  0  0.0 -.497679691762D-03 -.111413100967D-10  .000000000000D+00
     .510000000000D+02 -.125000000000D+00  .500377985609D-08  .105382292626D+01
     .838190317154D-07  .480849994346D-03  .578351318836D-05  .515375843430D+04
     .237600000000D+06 -.167638063431D-07  .174970725801D+01  .298023223877D-07
     .960906661688D+00  .268812500000D+03  .142431579658D+01 -.800926218935D-08
     .247153152064D-09  .100000000000D+01  .234300000000D+04  .000000000000D+00
     .240000000000D+01  .000000000000D+00 -.931322574615D-08  .307000000000D+03
     .230400000000D+06  .400000000000D+01
14 24 12  3 18  0  0.0  .552772544324D-03  .784439180279D-11  .000000000000D+00
     .189000000000D+03  .584375000000D+01  .502770942428D-08  .140006526106D+01
     .441446900368D-06  .504953879863D-02  .882707536221D-05  .515369814682D+04
     .237600000000D+06  .316649675369D-07  .284937038143D+01  .782310962677D-07
     .944822370410D+00  .201250000000D+03 -.286080990488D+01 -.812640992616D-08
    -.681456956846D-09  .100000000000D+01  .234300000000D+04  .000000000000D+00
     .240000000000D+01  .000000000000D+00 -.791624188423D-08  .957000000000D+03
     .230400000000D+06  .400000000000D+01
15 24 12  3 17 59 44.0  .235220883042D-03  .454747350886D-11  .000000000000D+00
     .280000000000D+02 -.580937500000D+02  .468090926437D-08 -.225036628390D+01
    -.309757888317D-05  .161314563593D-01  .991113483906D-05  .515373466492D+04
     .237584000000D+06  .217929482460D-06  .574970695620D+00 -.298023223877D-07
     .937425249490D+00  .165968750000D+03  .138159734665D+01 -.768460580896D-08
     .582881422208D-09  .100000000000D+01  .234300000000D+04  .000000000000D+00
     .240000000000D+01  .000000000000D+00 -.102445483208D-07  .280000000000D+02
     .230790000000D+06  .400000000000D+01
